{"type": "FeatureCollection", "features": [ {"type": "Feature", "properties": {"norad_id": 54234, "name": "NOAA 21 (JPSS-2)", "group": "weather", "lat": -17.12573623541807, "lon": 93.61974582592184, "alt_km": 833.324430634877, "timestamp": "2025-12-05T22:40:48.202797+00:00", "meta": {"OBJECT_NAME": "NOAA 21 (JPSS-2)", "OBJECT_ID": "2022-150A", "EPOCH": "2025-12-05T06:31:44.694048", "MEAN_MOTION": 14.1952099, "ECCENTRICITY": 0.00024819, "INCLINATION": 98.7451, "RA_OF_ASC_NODE": 275.6739, "ARG_OF_PERICENTER": 52.0618, "MEAN_ANOMALY": 308.0782, "EPHEMERIS_TYPE": 0, "CLASSIFICATION_TYPE": "U", "NORAD_CAT_ID": 54234, "ELEMENT_SET_NO": 999, "REV_AT_EPOCH": 15903, "BSTAR": 0.00011940347, "MEAN_MOTION_DOT": 2.08e-06, "MEAN_MOTION_DDOT": 0}, "tle": {"line1": "1 54234U 22150A   25339.27204507  .00000208  00000+0  11940-3 0  9994", "line2": "2 54234  98.7451 275.6739 0002481  52.0618 308.0782 14.19520990159036"}}, "geometry": {"type": "Point", "coordinates": [93.61974582592184, -17.12573623541807]}}, {"type": "Feature", "properties": {"norad_id": 54743, "name": "METEOSAT-12 (MTG-I1)", "group": "weather", "lat": 0.32548965944258196, "lon": 54.9187934735061, "alt_km": 35791.75056468692, "timestamp": "2025-12-05T22:40:48.202813+00:00", "meta": {"OBJECT_NAME": "METEOSAT-12 (MTG-I1)", "OBJECT_ID": "2022-170C", "EPOCH": "2025-12-05T03:25:25.372128", "MEAN_MOTION": 1.00273991, "ECCENTRICITY": 0.00015495, "INCLINATION": 0.72, "RA_OF_ASC_NODE": 30.3357, "ARG_OF_PERICENTER": 218.7545, "MEAN_ANOMALY": 236.1973, "EPHEMERIS_TYPE": 0, "CLASSIFICATION_TYPE": "U", "NORAD_CAT_ID": 54743, "ELEMENT_SET_NO": 999, "REV_AT_EPOCH": 1103, "BSTAR": 0, "MEAN_MOTION_DOT": 5e-08, "MEAN_MOTION_DDOT": 0}, "tle": {"line1": "1 54743U 22170C   25339.14265477  .00000005  00000+0  00000+0 0  9996", "line2": "2 54743   0.7200  30.3357 0001549 218.7545 236.1973  1.00273991 11034"}}, "geometry": {"type": "Point", "coordinates": [54.9187934735061, 0.32548965944258196]}}, {"type": "Feature", "properties": {"norad_id": 55973, "name": "TIANMU-1 03", "group": "weather", "lat": 41.39317769113409, "lon": 135.73055865197668, "alt_km": 438.57123188374044, "timestamp": "2025-12-05T22:40:48.202824+00:00", "meta": {"OBJECT_NAME": "TIANMU-1 03", "OBJECT_ID": "2023-039A", "EPOCH": "2025-12-05T06:54:39.026016", "MEAN_MOTION": 15.40596611, "ECCENTRICITY": 0.00045237, "INCLINATION": 97.5105, "RA_OF_ASC_NODE": 141.7335, "ARG_OF_PERICENTER": 82.1412, "MEAN_ANOMALY": 278.0347, "EPHEMERIS_TYPE": 0, "CLASSIFICATION_TYPE": "U", "NORAD_CAT_ID": 55973, "ELEMENT_SET_NO": 999, "REV_AT_EPOCH": 15091, "BSTAR": 0.00061224344, "MEAN_MOTION_DOT": 0.00024882, "MEAN_MOTION_DDOT": 0}, "tle": {"line1": "1 55973U 23039A   25339.28795169  .00024882  00000+0  61224-3 0  9996", "line2": "2 55973  97.5105 141.7335 0004523  82.1412 278.0347 15.40596611150919"}}, "geometry": {"type": "Point", "coordinates": [135.73055865197668, 41.39317769113409]}}, {"type": "Feature", "properties": {"norad_id": 55974, "name": "TIANMU-1 04", "group": "weather", "lat": 31.782621750961322, "lon": -33.71316859642538, "alt_km": 440.43460240123477, "timestamp": "2025-12-05T22:40:48.202834+00:00", "meta": {"OBJECT_NAME": "TIANMU-1 04", "OBJECT_ID": "2023-039B", "EPOCH": "2025-12-05T06:27:22.381920", "MEAN_MOTION": 15.40926994, "ECCENTRICITY": 0.00052483, "INCLINATION": 97.5036, "RA_OF_ASC_NODE": 140.9082, "ARG_OF_PERICENTER": 78.4463, "MEAN_ANOMALY": 281.7372, "EPHEMERIS_TYPE": 0, "CLASSIFICATION_TYPE": "U", "NORAD_CAT_ID": 55974, "ELEMENT_SET_NO": 999, "REV_AT_EPOCH": 15091, "BSTAR": 0.00060656948, "MEAN_MOTION_DOT": 0.00024924, "MEAN_MOTION_DDOT": 0}, "tle": {"line1": "1 55974U 23039B   25339.26900905  .00024924  00000+0  60657-3 0  9997", "line2": "2 55974  97.5036 140.9082 0005248  78.4463 281.7372 15.40926994150912"}}, "geometry": {"type": "Point", "coordinates": [-33.71316859642538, 31.782621750961322]}}, {"type": "Feature", "properties": {"norad_id": 55975, "name": "TIANMU-1 05", "group": "weather", "lat": -8.937815199192901, "lon": -39.094409272447514, "alt_km": 448.67605008424107, "timestamp": "2025-12-05T22:40:48.202845+00:00", "meta": {"OBJECT_NAME": "TIANMU-1 05", "OBJECT_ID": "2023-039C", "EPOCH": "2025-12-05T06:16:27.582240", "MEAN_MOTION": 15.40553764, "ECCENTRICITY": 0.00043518, "INCLINATION": 97.5083, "RA_OF_ASC_NODE": 141.3923, "ARG_OF_PERICENTER": 99.3714, "MEAN_ANOMALY": 260.8024, "EPHEMERIS_TYPE": 0, "CLASSIFICATION_TYPE": "U", "NORAD_CAT_ID": 55975, "ELEMENT_SET_NO": 999, "REV_AT_EPOCH": 15089, "BSTAR": 0.00059969679, "MEAN_MOTION_DOT": 0.00024333, "MEAN_MOTION_DDOT": 0}, "tle": {"line1": "1 55975U 23039C   25339.26143035  .00024333  00000+0  59970-3 0  9991", "line2": "2 55975  97.5083 141.3923 0004351  99.3714 260.8024 15.40553764150899"}}, "geometry": {"type": "Point", "coordinates": [-39.094409272447514, -8.937815199192901]}}, {"type": "Feature", "properties": {"norad_id": 55976, "name": "TIANMU-1 06", "group": "weather", "lat": 44.971894296425695, "lon": -29.87357950236813, "alt_km": 436.94640950280336, "timestamp": "2025-12-05T22:40:48.202868+00:00", "meta": {"OBJECT_NAME": "TIANMU-1 06", "OBJECT_ID": "2023-039D", "EPOCH": "2025-12-05T06:30:52.191360", "MEAN_MOTION": 15.40979718, "ECCENTRICITY": 0.00047081, "INCLINATION": 97.5094, "RA_OF_ASC_NODE": 141.8616, "ARG_OF_PERICENTER": 94.8958, "MEAN_ANOMALY": 265.2826, "EPHEMERIS_TYPE": 0, "CLASSIFICATION_TYPE": "U", "NORAD_CAT_ID": 55976, "ELEMENT_SET_NO": 999, "REV_AT_EPOCH": 15091, "BSTAR": 0.00060112914, "MEAN_MOTION_DOT": 0.0002474, "MEAN_MOTION_DDOT": 0}, "tle": {"line1": "1 55976U 23039D   25339.27143740  .00024740  00000+0  60113-3 0  9999", "line2": "2 55976  97.5094 141.8616 0004708  94.8958 265.2826 15.40979718150915"}}, "geometry": {"type": "Point", "coordinates": [-29.87357950236813, 44.971894296425695]}}, {"type": "Feature", "properties": {"norad_id": 56232, "name": "FENGYUN 3G", "group": "weather", "lat": -30.951577756825714, "lon": 112.74406725426192, "alt_km": 413.11882393041105, "timestamp": "2025-12-05T22:40:48.202880+00:00", "meta": {"OBJECT_NAME": "FENGYUN 3G", "OBJECT_ID": "2023-055A", "EPOCH": "2025-12-05T07:49:50.794176", "MEAN_MOTION": 15.52988249, "ECCENTRICITY": 0.00092341, "INCLINATION": 49.995, "RA_OF_ASC_NODE": 265.6926, "ARG_OF_PERICENTER": 113.2663, "MEAN_ANOMALY": 246.9277, "EPHEMERIS_TYPE": 0, "CLASSIFICATION_TYPE": "U", "NORAD_CAT_ID": 56232, "ELEMENT_SET_NO": 999, "REV_AT_EPOCH": 14987, "BSTAR": 0.00076234073, "MEAN_MOTION_DOT": 0.0004839, "MEAN_MOTION_DDOT": 0}, "tle": {"line1": "1 56232U 23055A   25339.32628234  .00048390  00000+0  76234-3 0  9993", "line2": "2 56232  49.9950 265.6926 0009234 113.2663 246.9277 15.52988249149871"}}, "geometry": {"type": "Point", "coordinates": [112.74406725426192, -30.951577756825714]}}, {"type": "Feature", "properties": {"norad_id": 57166, "name": "METEOR-M2 3", "group": "weather", "lat": -6.232541912719396, "lon": 34.55404621047715, "alt_km": 812.8796348834103, "timestamp": "2025-12-05T22:40:48.202890+00:00", "meta": {"OBJECT_NAME": "METEOR-M2 3", "OBJECT_ID": "2023-091A", "EPOCH": "2025-12-05T07:31:57.692352", "MEAN_MOTION": 14.24024714, "ECCENTRICITY": 0.00043111, "INCLINATION": 98.6389, "RA_OF_ASC_NODE": 32.9826, "ARG_OF_PERICENTER": 28.9355, "MEAN_ANOMALY": 331.2062, "EPHEMERIS_TYPE": 0, "CLASSIFICATION_TYPE": "U", "NORAD_CAT_ID": 57166, "ELEMENT_SET_NO": 999, "REV_AT_EPOCH": 12692, "BSTAR": 5.1340438e-05, "MEAN_MOTION_DOT": 7.4e-07, "MEAN_MOTION_DDOT": 0}, "tle": {"line1": "1 57166U 23091A   25339.31386218  .00000074  00000+0  51340-4 0  9991", "line2": "2 57166  98.6389  32.9826 0004311  28.9355 331.2062 14.24024714126927"}}, "geometry": {"type": "Point", "coordinates": [34.55404621047715, -6.232541912719396]}}, {"type": "Feature", "properties": {"norad_id": 57399, "name": "TIANMU-1 07", "group": "weather", "lat": 17.670400917843, "lon": -147.7174438793611, "alt_km": 480.8622092916421, "timestamp": "2025-12-05T22:40:48.202901+00:00", "meta": {"OBJECT_NAME": "TIANMU-1 07", "OBJECT_ID": "2023-101A", "EPOCH": "2025-12-05T07:49:39.042912", "MEAN_MOTION": 15.27908782, "ECCENTRICITY": 0.00056313, "INCLINATION": 97.2887, "RA_OF_ASC_NODE": 29.3405, "ARG_OF_PERICENTER": 100.2408, "MEAN_ANOMALY": 259.9467, "EPHEMERIS_TYPE": 0, "CLASSIFICATION_TYPE": "U", "NORAD_CAT_ID": 57399, "ELEMENT_SET_NO": 999, "REV_AT_EPOCH": 13202, "BSTAR": 0.00045667079, "MEAN_MOTION_DOT": 0.00012381, "MEAN_MOTION_DDOT": 0}, "tle": {"line1": "1 57399U 23101A   25339.32614633  .00012381  00000+0  45667-3 0  9995", "line2": "2 57399  97.2887  29.3405 0005631 100.2408 259.9467 15.27908782132028"}}, "geometry": {"type": "Point", "coordinates": [-147.7174438793611, 17.670400917843]}}, {"type": "Feature", "properties": {"norad_id": 57400, "name": "TIANMU-1 08", "group": "weather", "lat": -15.93251015218186, "lon": 31.83860739390622, "alt_km": 489.4153100020085, "timestamp": "2025-12-05T22:40:48.202927+00:00", "meta": {"OBJECT_NAME": "TIANMU-1 08", "OBJECT_ID": "2023-101B", "EPOCH": "2025-12-05T07:01:56.205696", "MEAN_MOTION": 15.27892626, "ECCENTRICITY": 0.00074844, "INCLINATION": 97.2876, "RA_OF_ASC_NODE": 29.1075, "ARG_OF_PERICENTER": 104.73, "MEAN_ANOMALY": 255.477, "EPHEMERIS_TYPE": 0, "CLASSIFICATION_TYPE": "U", "NORAD_CAT_ID": 57400, "ELEMENT_SET_NO": 999, "REV_AT_EPOCH": 13201, "BSTAR": 0.00049063079, "MEAN_MOTION_DOT": 0.00013306, "MEAN_MOTION_DDOT": 0}, "tle": {"line1": "1 57400U 23101B   25339.29301164  .00013306  00000+0  49063-3 0  9998", "line2": "2 57400  97.2876  29.1075 0007484 104.7300 255.4770 15.27892626132014"}}, "geometry": {"type": "Point", "coordinates": [31.83860739390622, -15.93251015218186]}}]}